43570,IRIDIUM 166,2018,100.4,860.0,+,86.39,Active,1,LEO,USA,USA,Commercial/Government,Communications,Falcon,1 43570U 18061B   24307.09986591  .00000565  00000+0  19481-3 0  9999,2 43570  86.3920 304.1725 0002424  84.8665 275.2807 14.34220562328531,14.34220562,0.0002424,LEO
43571,IRIDIUM 158,2018,100.4,860.0,+,86.39,Active,1,LEO,USA,USA,Commercial/Government,Communications,Falcon,1 43571U 18061C   24306.92859187 -.00000024  00000+0 -15650-4 0  9998,2 43571  86.3921 304.2539 0002264  90.0985 270.0470 14.34216327328479,14.34216327,0.0002264,LEO
43572,IRIDIUM 165,2018,100.4,860.0,+,86.39,Active,1,LEO,USA,USA,Commercial/Government,Communications,Falcon,1 43572U 18061D   24307.09350048  .00000205  00000+0  66148-4 0  9997,2 43572  86.3920 304.2197 0002182  89.2169 270.9277 14.34218258328527,14.34218258,0.0002182,LEO
43573,IRIDIUM 155,2018,100.4,860.0,+,86.39,Active,1,LEO,USA,USA,Commercial/Government,Communications,Falcon,1 43573U 18061E   24307.05544443  .00000454  00000+0  15487-3 0  9993,2 43573  86.3915 304.1338 0002440  89.0599 271.0876 14.34218254328499,14.34218254,0.000244,LEO
43574,IRIDIUM 154,2018,100.4,860.0,+,86.39,Active,1,LEO,USA,USA,Commercial/Government,Communications,Falcon,1 43574U 18061F   24307.24571963  .00000256  00000+0  84394-4 0  9996,2 43574  86.3924 304.1585 0002073  91.1998 268.9435 14.34218429328561,14.34218429,0.0002073,LEO
43575,IRIDIUM 163,2018,100.4,860.0,+,86.39,Active,1,LEO,USA,USA,Commercial/Government,Communications,Falcon,1 43575U 18061G   24307.50576625  .00000259  00000+0  85351-4 0  9993,2 43575  86.3921 303.9837 0002306  94.3117 265.8342 14.34219286328579,14.34219286,0.0002306,LEO
43576,IRIDIUM 156,2018,100.4,860.0,+,86.39,Active,1,LEO,USA,USA,Commercial/Government,Communications,Falcon,1 43576U 18061H   24307.06178780 -.00000010  00000+0 -10459-4 0  9999,2 43576  86.3919 304.1763 0002395  85.7215 274.4254 14.34217582328495,14.34217582,0.0002395,LEO
43577,IRIDIUM 164,2018,100.4,860.0,+,86.39,Active,1,LEO,USA,USA,Commercial/Government,Communications,Falcon,1 43577U 18061J   24307.25206502  .00000069  00000+0  17411-4 0  9992,2 43577  86.3926 304.1274 0002180  85.4783 274.6662 14.34218091328570,14.34218091,0.000218,LEO
